[Satellite]
VERSION=1.1
NAME=GOES 14
NICKNAME=GOES 14
TLE1=1 35491U 09033A   22342.53471795 -.00000078  00000+0  00000+0 0  9995
TLE2=2 35491   0.1767 260.5420 0018220 324.3395 300.6925  1.00271586 49206
STATUS=0
